{
  "type": "FeatureCollection",
  "features": [
    {
      "type": "Feature",
      "properties": {
        "norad_id": 66576,
        "name": "STARLINK-35814",
        "group": "last-30-days",
        "lat": 36.91862943155027,
        "lon": -177.1735908718498,
        "alt_km": 410.2813185262885,
        "timestamp": "2025-12-11T08:58:25.854742+00:00",
        "meta_object_name": "STARLINK-35814",
        "meta_object_id": "2025-268V",
        "meta_epoch": "2025-12-11T04:00:01.998720",
        "meta_mean_motion": 15.50599612,
        "meta_eccentricity": 0.000178,
        "meta_inclination": 43.0004,
        "meta_ra_of_asc_node": 130.3059,
        "meta_arg_of_pericenter": 265.6492,
        "meta_mean_anomaly": 78.0432,
        "meta_ephemeris_type": 0,
        "meta_classification_type": "U",
        "meta_norad_cat_id": 66576,
        "meta_element_set_no": 999,
        "meta_rev_at_epoch": 441,
        "meta_bstar": -0.0014029,
        "meta_mean_motion_dot": -0.0008185,
        "meta_mean_motion_ddot": 0,
        "tle_line1": "1 66576U 25268V   25345.16668980 -.00081850  00000+0 -14029-2 0  9997",
        "tle_line2": "2 66576  43.0004 130.3059 0001780 265.6492  78.0432 15.50599612  4410"
      },
      "geometry": {
        "type": "Point",
        "coordinates": [
          -177.1735908718498,
          36.91862943155027
        ]
      }
    },
    {
      "type": "Feature",
      "properties": {
        "norad_id": 66577,
        "name": "STARLINK-35815",
        "group": "last-30-days",
        "lat": 37.691695921387144,
        "lon": -174.89941874272034,
        "alt_km": 410.0938655996497,
        "timestamp": "2025-12-11T08:58:25.854752+00:00",
        "meta_object_name": "STARLINK-35815",
        "meta_object_id": "2025-268W",
        "meta_epoch": "2025-12-11T04:00:01.998720",
        "meta_mean_motion": 15.50746462,
        "meta_eccentricity": 0.0001741,
        "meta_inclination": 43.0005,
        "meta_ra_of_asc_node": 130.3015,
        "meta_arg_of_pericenter": 256.8535,
        "meta_mean_anomaly": 88.7406,
        "meta_ephemeris_type": 0,
        "meta_classification_type": "U",
        "meta_norad_cat_id": 66577,
        "meta_element_set_no": 999,
        "meta_rev_at_epoch": 441,
        "meta_bstar": -0.0057863,
        "meta_mean_motion_dot": -0.00327942,
        "meta_mean_motion_ddot": 0,
        "tle_line1": "1 66577U 25268W   25345.16668980 -.00327942  00000+0 -57863-2 0  9996",
        "tle_line2": "2 66577  43.0005 130.3015 0001741 256.8535  88.7406 15.50746462  4417"
      },
      "geometry": {
        "type": "Point",
        "coordinates": [
          -174.89941874272034,
          37.691695921387144
        ]
      }
    },
    {
      "type": "Feature",
      "properties": {
        "norad_id": 66578,
        "name": "STARLINK-35743",
        "group": "last-30-days",
        "lat": 38.38403041518713,
        "lon": -172.69825650507966,
        "alt_km": 409.96743691138454,
        "timestamp": "2025-12-11T08:58:25.854763+00:00",
        "meta_object_name": "STARLINK-35743",
        "meta_object_id": "2025-268X",
        "meta_epoch": "2025-12-11T04:00:01.998720",
        "meta_mean_motion": 15.50608206,
        "meta_eccentricity": 0.0001617,
        "meta_inclination": 43.0004,
        "meta_ra_of_asc_node": 130.2961,
        "meta_arg_of_pericenter": 265.888,
        "meta_mean_anomaly": 81.6379,
        "meta_ephemeris_type": 0,
        "meta_classification_type": "U",
        "meta_norad_cat_id": 66578,
        "meta_element_set_no": 999,
        "meta_rev_at_epoch": 441,
        "meta_bstar": -0.0016208,
        "meta_mean_motion_dot": -0.00094386,
        "meta_mean_motion_ddot": 0,
        "tle_line1": "1 66578U 25268X   25345.16668980 -.00094386  00000+0 -16208-2 0  9998",
        "tle_line2": "2 66578  43.0004 130.2961 0001617 265.8880  81.6379 15.50608206  4415"
      },
      "geometry": {
        "type": "Point",
        "coordinates": [
          -172.69825650507966,
          38.38403041518713
        ]
      }
    },
    {
      "type": "Feature",
      "properties": {
        "norad_id": 66579,
        "name": "STARLINK-35868",
        "group": "last-30-days",
        "lat": 39.05083004984167,
        "lon": -170.3957941403171,
        "alt_km": 409.9101981040876,
        "timestamp": "2025-12-11T08:58:25.854777+00:00",
        "meta_object_name": "STARLINK-35868",
        "meta_object_id": "2025-268Y",
        "meta_epoch": "2025-12-11T04:00:01.998720",
        "meta_mean_motion": 15.50607344,
        "meta_eccentricity": 0.0001681,
        "meta_inclination": 43.0004,
        "meta_ra_of_asc_node": 130.2912,
        "meta_arg_of_pericenter": 266.9997,
        "meta_mean_anomaly": 82.4439,
        "meta_ephemeris_type": 0,
        "meta_classification_type": "U",
        "meta_norad_cat_id": 66579,
        "meta_element_set_no": 999,
        "meta_rev_at_epoch": 441,
        "meta_bstar": -0.001602,
        "meta_mean_motion_dot": -0.00093309,
        "meta_mean_motion_ddot": 0,
        "tle_line1": "1 66579U 25268Y   25345.16668980 -.00093309  00000+0 -16020-2 0  9995",
        "tle_line2": "2 66579  43.0004 130.2912 0001681 266.9997  82.4439 15.50607344  4412"
      },
      "geometry": {
        "type": "Point",
        "coordinates": [
          -170.3957941403171,
          39.05083004984167
        ]
      }
    },
    {
      "type": "Feature",
      "properties": {
        "norad_id": 66580,
        "name": "STARLINK-35872",
        "group": "last-30-days",
        "lat": 39.67107172134822,
        "lon": -168.05168639592185,
        "alt_km": 409.75263515573806,
        "timestamp": "2025-12-11T08:58:25.854788+00:00",
        "meta_object_name": "STARLINK-35872",
        "meta_object_id": "2025-268Z",
        "meta_epoch": "2025-12-11T04:00:01.998720",
        "meta_mean_motion": 15.50606008,
        "meta_eccentricity": 0.0001578,
        "meta_inclination": 43.0005,
        "meta_ra_of_asc_node": 130.2869,
        "meta_arg_of_pericenter": 268.4255,
        "meta_mean_anomaly": 82.9355,
        "meta_ephemeris_type": 0,
        "meta_classification_type": "U",
        "meta_norad_cat_id": 66580,
        "meta_element_set_no": 999,
        "meta_rev_at_epoch": 441,
        "meta_bstar": -0.0015695,
        "meta_mean_motion_dot": -0.00091435,
        "meta_mean_motion_ddot": 0,
        "tle_line1": "1 66580U 25268Z   25345.16668980 -.00091435  00000+0 -15695-2 0  9992",
        "tle_line2": "2 66580  43.0005 130.2869 0001578 268.4255  82.9355 15.50606008  4413"
      },
      "geometry": {
        "type": "Point",
        "coordinates": [
          -168.05168639592185,
          39.67107172134822
        ]
      }
    },
    {
      "type": "Feature",
      "properties": {
        "norad_id": 66581,
        "name": "STARLINK-35744",
        "group": "last-30-days",
        "lat": 40.225650418197155,
        "lon": -165.74377463685428,
        "alt_km": 409.79559820146824,
        "timestamp": "2025-12-11T08:58:25.854798+00:00",
        "meta_object_name": "STARLINK-35744",
        "meta_object_id": "2025-268AA",
        "meta_epoch": "2025-12-11T04:00:01.998720",
        "meta_mean_motion": 15.5047599,
        "meta_eccentricity": 0.0001557,
        "meta_inclination": 43.0005,
        "meta_ra_of_asc_node": 130.282,
        "meta_arg_of_pericenter": 261.9805,
        "meta_mean_anomaly": 91.2997,
        "meta_ephemeris_type": 0,
        "meta_classification_type": "U",
        "meta_norad_cat_id": 66581,
        "meta_element_set_no": 999,
        "meta_rev_at_epoch": 436,
        "meta_bstar": 0.0023911,
        "meta_mean_motion_dot": 0.00141986,
        "meta_mean_motion_ddot": 0,
        "tle_line1": "1 66581U 25268AA  25345.16668980  .00141986  00000+0  23911-2 0  9998",
        "tle_line2": "2 66581  43.0005 130.2820 0001557 261.9805  91.2997 15.50475990  4360"
      },
      "geometry": {
        "type": "Point",
        "coordinates": [
          -165.74377463685428,
          40.225650418197155
        ]
      }
    },
    {
      "type": "Feature",
      "properties": {
        "norad_id": 66582,
        "name": "STARLINK-35746",
        "group": "last-30-days",
        "lat": 40.76507200409475,
        "lon": -163.24464125808663,
        "alt_km": 409.71090772062234,
        "timestamp": "2025-12-11T08:58:25.854808+00:00",
        "meta_object_name": "STARLINK-35746",
        "meta_object_id": "2025-268AB",
        "meta_epoch": "2025-12-11T04:00:01.998720",
        "meta_mean_motion": 15.50601311,
        "meta_eccentricity": 0.000173,
        "meta_inclination": 43.0004,
        "meta_ra_of_asc_node": 130.2764,
        "meta_arg_of_pericenter": 268.215,
        "meta_mean_anomaly": 86.9813,
        "meta_ephemeris_type": 0,
        "meta_classification_type": "U",
        "meta_norad_cat_id": 66582,
        "meta_element_set_no": 999,
        "meta_rev_at_epoch": 441,
        "meta_bstar": -0.0014502,
        "meta_mean_motion_dot": -0.00084575,
        "meta_mean_motion_ddot": 0,
        "tle_line1": "1 66582U 25268AB  25345.16668980 -.00084575  00000+0 -14502-2 0  9997",
        "tle_line2": "2 66582  43.0004 130.2764 0001730 268.2150  86.9813 15.50601311  4415"
      },
      "geometry": {
        "type": "Point",
        "coordinates": [
          -163.24464125808663,
          40.76507200409475
        ]
      }
    }
  ]
}